# From MPC106342
C/1995 O1 (Hale-Bopp),e,89.0168,283.3038,130.5462,179.1716,0.0004110,0.99494509,0.0000,03/29.7340/1997,2000,g -2.0,4.0
# From NK 1615
P/1996 R2 (Lagerkvist),e,2.6003,40.0306,333.3114,3.775040,0.1343760,0.31404991,91.2885,12/22.0/2020,2000,g 11.5,4.0
# From MPC 30063
P/1997 B1 (Kobayashi),e,12.3395,328.8840,183.3576,8.568568,0.0392954,0.76011897,341.8534,12/22.0/2020,2000,g 15.0,2.0
# From MPC 75703
P/1998 VS24 (LINEAR),e,5.0253,159.0314,244.6696,4.529451,0.1022435,0.24200337,109.2988,12/22.0/2020,2000,g 13.0,2.0
# From NK 731
P/1999 RO28 (LONEOS),e,7.5668,137.8836,231.2685,3.426767,0.1553736,0.67207301,84.6603,12/22.0/2020,2000,g 20.0,2.0
# From MPC 75704
P/1999 XN120 (Catalina),e,5.0297,285.2961,161.8934,4.179020,0.1153698,0.21031929,148.8778,12/22.0/2020,2000,g 13.5,2.0
# From NK 744
P/2000 R2 (LINEAR),e,11.6846,160.2934,176.5183,3.466150,0.1527331,0.53157132,84.5496,12/22.0/2020,2000,g 18.0,4.0
# From MPC 43019
P/2001 H5 (NEAT),e,8.3672,328.6845,224.8672,6.098098,0.0654504,0.59864657,123.7486,12/22.0/2020,2000,g 12.0,4.0
# From MPC 75704
P/2001 Q6 (NEAT),e,56.9032,22.1330,42.9431,7.951046,0.0439610,0.82282897,308.8269,12/22.0/2020,2000,g 13.5,4.0
# From MPC 47727
P/2002 EJ57 (LINEAR),e,4.9761,330.3280,167.3659,6.472955,0.0598481,0.59273683,54.9147,12/22.0/2020,2000,g 12.5,4.0
# From MPC109588
P/2002 T6 (NEAT-LINEAR),e,10.8335,206.4272,219.6081,7.671960,0.0463815,0.56012954,299.2653,12/22.0/2020,2000,g 10.5,4.0
# From MPC 75007
C/2002 VQ94 (LINEAR),e,70.5711,35.0167,100.1628,185.8259,0.0003891,0.96322439,2.1176,12/22.0/2020,2000,g  9.5,2.0
# From MPC 50354
P/2003 F2 (NEAT),e,11.6046,359.0687,191.9410,6.491374,0.0595935,0.54225291,24.1742,12/22.0/2020,2000,g 16.5,2.0
# From MPC 50139
P/2003 QX29 (NEAT),e,11.3898,264.5865,37.4134,8.032050,0.0432977,0.47298297,286.9585,12/22.0/2020,2000,g  8.5,4.0
# From MPC105235
P/2003 T12 (SOHO),e,11.0171,174.5735,219.7680,2.586168,0.2369839,0.76965189,54.3018,12/22.0/2020,2000,g 17.0,4.0
# From MPC 82312
P/2004 A1 (LONEOS),e,10.5516,124.8472,21.4054,7.956436,0.0439163,0.30935408,262.3885,12/22.0/2020,2000,g  6.5,4.0
# From MPC 54558
P/2004 DO29 (Spacewatch-LINEAR),e,14.5318,147.3786,40.7182,7.283046,0.0501458,0.44130291,296.7828,12/22.0/2020,2000,g 13.5,2.0
# From MPC 54823
P/2004 FY140 (LINEAR),e,2.1348,326.7606,242.4552,4.901874,0.0908157,0.16857136,179.5607,12/22.0/2020,2000,g 12.5,2.0
# From MPC 53304
P/2004 R3 (LINEAR-NEAT),e,12.8253,305.4808,38.5633,4.796252,0.0938320,0.26132021,333.8472,12/22.0/2020,2000,g 14.5,4.0
# From MPC 55521
P/2004 V3 (Siding Spring),e,50.4340,356.1169,322.3060,7.143702,0.0516201,0.44633439,305.0268,12/22.0/2020,2000,g 11.5,4.0
# From MPC 75705
P/2004 V5 (LINEAR-Hill),e,19.3447,47.7719,87.7748,7.976330,0.0437521,0.44353508,253.6161,12/22.0/2020,2000,g  8.0,4.0
# From MPEC 2020-X09
P/2005 CR16,e,9.3936,139.9820,313.1083,6.627596,0.0577657,0.51008990,349.3919,12/22.0/2020,2000,g 12.5,4.0
# From MPC 54164
P/2005 E1 (Tubbiolo),e,4.2637,335.5710,194.1166,7.037827,0.0527893,0.37517368,306.5807,12/22.0/2020,2000,g 10.0,4.0
# From MPC 54823
P/2005 GF8 (LONEOS),e,1.1933,314.8323,285.0497,5.858224,0.0695113,0.51804805,31.2556,12/22.0/2020,2000,g 11.5,4.0
# From MPC 79019
P/2005 J1 (McNaught),e,31.7661,268.8043,338.9585,3.569873,0.1461252,0.56984813,117.0920,12/22.0/2020,2000,g 16.5,4.0
# From MPC 74246
P/2005 L1 (McNaught),e,7.7386,138.2477,149.7018,3.975254,0.1243532,0.20938105,320.7497,12/22.0/2020,2000,g  9.5,4.0
# From MPC 75706
P/2005 S2 (Skiff),e,3.1357,161.1975,229.1549,8.017081,0.0434190,0.19695466,231.9660,12/22.0/2020,2000,g  7.5,4.0
# From MPC 75706
P/2005 SB216 (LONEOS),e,24.0742,1.2313,83.3894,7.127755,0.0517935,0.46336843,263.9314,12/22.0/2020,2000,g 12.0,2.0
# From MPC 55717
P/2005 T2 (Christensen),e,8.2927,260.1574,58.8122,3.845936,0.1306775,0.41639636,33.6668,12/22.0/2020,2000,g 14.5,4.0
# From MPC 73461
P/2005 T3 (Read),e,6.2245,27.7381,6.9900,7.578271,0.0472442,0.17400961,262.2185,12/22.0/2020,2000,g  9.0,4.0
# From MPC 73461
P/2005 T4 (SWAN),e,160.1852,25.6808,41.5851,9.360986,0.0344129,0.92989659,191.4512,12/22.0/2020,2000,g 15.0,4.0
# From MPC 75706
P/2005 T5 (Broughton),e,21.3536,57.0065,304.5290,7.291382,0.0500598,0.55203810,278.1208,12/22.0/2020,2000,g 11.0,4.0
# From MPC 56954
P/2005 W3 (Kowalski),e,16.4182,210.0890,200.6910,6.331289,0.0618680,0.54347253,343.1247,12/22.0/2020,2000,g 12.0,4.0
# From MPC 75706
P/2005 Y2 (McNaught),e,19.0900,94.5048,194.0179,6.385962,0.0610752,0.47059489,3.8081,12/22.0/2020,2000,g  9.0,4.0
# From MPC 56954
P/2006 F4 (Spacewatch),e,12.4047,183.8690,31.1400,3.526356,0.1488384,0.33945026,75.5173,12/22.0/2020,2000,g 15.0,4.0
# From MPC 75707
P/2006 HR30 (Siding Spring),e,31.8297,309.9028,117.2896,7.811275,0.0451462,0.84205000,231.2510,12/22.0/2020,2000,g 11.0,4.0
# From MPC 75707
P/2006 S4 (Christensen),e,39.5349,36.0933,305.1484,6.311817,0.0621545,0.50802901,335.8411,12/22.0/2020,2000,g 11.0,4.0
# From MPC 75707
P/2007 A2 (Christensen),e,26.4877,300.9066,186.7561,6.325066,0.0619593,0.55758517,316.1709,12/22.0/2020,2000,g 13.5,4.0
# From MPC 59319
P/2007 B1 (Christensen),e,12.3761,77.6664,46.7512,5.819639,0.0702037,0.58092789,357.5684,12/22.0/2020,2000,g 13.5,4.0
# From MPC 75707
P/2007 C2 (Catalina),e,8.6556,275.6138,179.9155,6.993778,0.0532888,0.47013220,257.5896,12/22.0/2020,2000,g 10.0,4.0
# From MPC 84315
C/2007 D1 (LINEAR),e,41.5015,171.1813,340.0939,1532,0.0000164,0.99423611,0.0000,06/09.5697/2007,2000,g  3.5,4.0
# From MPC 82314
P/2007 K2 (Gibbs),e,7.6360,188.6464,347.4662,7.262961,0.0503539,0.68332005,249.1984,12/22.0/2020,2000,g 14.0,4.0
# From MPC 60925
P/2007 Q2 (Gilmore),e,10.2025,172.1599,162.7763,5.654626,0.0732990,0.67024193,1.8344,12/22.0/2020,2000,g 16.0,4.0
# From MPC 75708
P/2007 R4 (Garradd),e,20.2245,87.2223,282.6502,5.927797,0.0682911,0.67001894,335.9722,12/22.0/2020,2000,g 14.5,4.0
# From MPC 73462
P/2007 S1 (Zhao),e,5.9633,141.3783,245.7296,3.813120,0.1323681,0.33961222,273.2246,12/22.0/2020,2000,g 13.0,4.0
# From MPC 61994
P/2007 T2 (Kowalski),e,9.7453,3.3749,359.6358,3.047168,0.1852932,0.78524622,163.4766,12/22.0/2020,2000,g 18.5,4.0
# From MPC 75708
P/2008 CL94 (Lemmon),e,8.3472,33.3305,80.5165,6.161015,0.0644504,0.12027812,342.3563,12/22.0/2020,2000,g  8.0,4.0
# From MPC 75709
P/2008 L2 (Hill),e,25.8571,218.0055,141.2118,6.028673,0.0665842,0.61304223,302.0561,12/22.0/2020,2000,g 12.5,4.0
# From MPC 64114
P/2008 O3 (Boattini),e,32.2515,47.5970,341.0877,8.223031,0.0417981,0.69510239,192.1125,12/22.0/2020,2000,g 13.0,4.0
# From MPC 75709
P/2008 QP20 (LINEAR-Hill),e,7.5218,322.0768,75.6155,3.552652,0.1471889,0.49223013,304.6382,12/22.0/2020,2000,g 15.5,4.0
# From MPC 66204
P/2008 WZ96 (LINEAR),e,7.1117,56.4789,341.8693,3.490315,0.1511497,0.47032807,322.5635,12/22.0/2020,2000,g 13.5,4.0
# From MPC 75710
P/2008 Y3 (McNaught),e,38.7632,262.7913,238.2626,8.046005,0.0431851,0.44552382,189.1246,12/22.0/2020,2000,g  8.5,4.0
# From MPC 75710
P/2009 B1 (Boattini),e,22.2192,297.0915,128.8932,6.735989,0.0563770,0.63466173,246.1577,12/22.0/2020,2000,g 13.0,4.0
# From MPC 66466
C/2009 G1 (STEREO),e,108.7482,120.4323,175.3917,427.4772,0.0001115,0.99734509,0.0000,04/15.2398/2009,2000,g  9.0,4.0
# From MPC 75710
P/2009 O3 (Hill),e,16.2652,183.7147,154.3912,7.770475,0.0455022,0.68756231,192.6380,12/22.0/2020,2000,g 12.5,4.0
# From MPC 98557
P/2009 Q1 (Hill),e,14.5055,173.9591,157.1251,5.520215,0.0759924,0.49478695,320.6241,12/22.0/2020,2000,g 11.5,4.0
# From MPC 68902
P/2009 Q5 (McNaught),e,40.9751,160.2642,209.0197,7.437883,0.0485881,0.60871005,200.5838,12/22.0/2020,2000,g 10.0,4.0
# From MPC112389
P/2009 T2 (La Sagra),e,27.5477,215.7936,216.4174,7.724269,0.0459111,0.76510427,184.2254,12/22.0/2020,2000,g 14.0,4.0
# From MPC 75711
P/2009 U4 (McNaught),e,10.0807,55.3567,259.8397,5.083781,0.0859852,0.67611616,356.4655,12/22.0/2020,2000,g 14.0,4.0
# From MPC105235
P/2009 WX51 (Catalina),e,9.5955,31.6829,118.0730,3.080624,0.1822829,0.74030867,6.4960,12/22.0/2020,2000,g 19.0,2.0
# From MPC 74247
P/2009 Y2 (Kowalski),e,29.9295,262.0241,172.1679,6.549167,0.0588065,0.63587850,232.1426,12/22.0/2020,2000,g 13.0,4.0
# From MPC 75711
P/2010 A3 (Hill),e,14.8607,64.0561,41.9672,6.075822,0.0658107,0.73329937,258.4787,12/22.0/2020,2000,g 14.0,4.0
# From MPC 72851
P/2010 A5 (LINEAR),e,5.7978,277.6635,307.0886,5.083302,0.0859974,0.66501289,334.2447,12/22.0/2020,2000,g 13.0,4.0
# From MPC105235
P/2010 B2 (WISE),e,8.9307,0.8478,155.9188,3.109872,0.1797175,0.47988044,3.1331,12/22.0/2020,2000,g 17.0,4.0
# From MPC 75008
P/2010 C1 (Scotti),e,9.1282,141.8862,3.7672,7.102899,0.0520656,0.25863265,211.0777,12/22.0/2020,2000,g  9.5,4.0
# From MPC 75008
P/2010 D2 (WISE),e,57.0847,319.8918,120.0883,6.715804,0.0566314,0.45086709,224.3704,12/22.0/2020,2000,g 16.0,4.0
# From MPC 75009
P/2010 E2 (Jarnac),e,15.4047,177.8248,8.3698,8.638079,0.0388220,0.72020365,152.0133,12/22.0/2020,2000,g 14.0,4.0
# From MPC 72851
P/2010 H2 (Vales),e,14.2731,64.2053,128.1866,3.834302,0.1312728,0.19568988,157.5169,12/22.0/2020,2000,g  6.0,4.0
# From MPC 70361
P/2010 H3 (SOHO),e,23.0884,77.1033,26.1365,3.059472,0.1841766,0.98548635,0.0000,02/07.9646/2021,2000,g 20.0,2.0
# From MPC 73463
P/2010 H4 (Scotti),e,2.3189,44.7462,179.5590,6.589868,0.0582625,0.26751516,223.6043,12/22.0/2020,2000,g 10.5,4.0
# From MPC 74637
P/2010 H5 (Scotti),e,14.0666,24.8086,175.2734,7.159064,0.0514541,0.15361397,201.1684,12/22.0/2020,2000,g 13.0,2.0
# From MPC 98558
P/2010 J3 (McMillan),e,13.2890,106.4102,157.5867,8.970501,0.0366842,0.72721909,138.1884,12/22.0/2020,2000,g 11.0,4.0
# From MPC 84315
P/2010 JC81 (WISE),e,38.7224,30.8430,12.4410,8.110989,0.0426671,0.77672795,150.8198,12/22.0/2020,2000,g  9.0,4.0
# From MPC 74248
P/2010 T2 (PANSTARRS),e,7.9123,59.0248,353.6504,5.515992,0.0760797,0.32149686,269.5062,12/22.0/2020,2000,g 11.5,4.0
# From MPC 98558
P/2010 TO20 (LINEAR-Grauer),e,2.4791,43.2972,266.7446,5.829324,0.0700288,0.05462387,311.1696,12/22.0/2020,2000,g  9.0,4.0
# From MPC 82316
